[{"OBJECT_NAME":"GAOFEN-9 03","OBJECT_ID":"2020-039A","EPOCH":"2026-03-09T21:55:15.121344","MEAN_MOTION":15.30529116,"ECCENTRICITY":0.0013094,"INCLINATION":97.5219,"RA_OF_ASC_NODE":201.2158,"ARG_OF_PERICENTER":77.4533,"MEAN_ANOMALY":282.8172,"EPHEMERIS_TYPE":0,"CLASSIFICATION_TYPE":"U","NORAD_CAT_ID":45794,"ELEMENT_SET_NO":999,"REV_AT_EPOCH":31856,"BSTAR":0.00039258132,"MEAN_MOTION_DOT":0.00011544,"MEAN_MOTION_DDOT":0},{"OBJECT_NAME":"STARLINK-31009","OBJECT_ID":"2023-191Y","EPOCH":"2026-03-09T12:09:56.109024","MEAN_MOTION":15.27125173,"ECCENTRICITY":0.00020466,"INCLINATION":42.9983,"RA_OF_ASC_NODE":104.4335,"ARG_OF_PERICENTER":225.1892,"MEAN_ANOMALY":134.8793,"EPHEMERIS_TYPE":0,"CLASSIFICATION_TYPE":"U","NORAD_CAT_ID":58530,"ELEMENT_SET_NO":999,"REV_AT_EPOCH":12546,"BSTAR":0.002937283,"MEAN_MOTION_DOT":0.00080329,"MEAN_MOTION_DDOT":0}]
